NORAD_CAT_ID,OBJECT_NAME,OBJECT_TYPE,EPOCH,MEAN_MOTION,ECCENTRICITY,INCLINATION,RA_OF_ASC_NODE,ARG_OF_PERICENTER,MEAN_ANOMALY,BSTAR,MEAN_MOTION_DOT,MEAN_MOTION_DDOT,TLE_LINE0,TLE_LINE1,TLE_LINE2,SEMIMAJOR_AXIS,PERIOD,APOGEE,PERIGEE,DECAYED
53623.0,STARLINK-4573,PAYLOAD,2024-01-10 11:38:16,15.08836725,0.0001288,53.2153,176.8737,90.767,269.347,6.5312e-05,7.52e-06,0.0,0 STARLINK-4573,1 53623U 22104AM  24010.48491731  .00000752  00000-0  65312-4 0  9997,2 53623  53.2153 176.8737 0001288  90.7670 269.3470 15.08836725 75926,6917.89,95.438,540.646,538.864,0.0
53623.0,STARLINK-4573,PAYLOAD,2024-01-11 14:39:49,15.08843937,0.0001279,53.2153,171.8185,95.5261,264.5877,9.9275e-05,1.293e-05,0.0,0 STARLINK-4573,1 53623U 22104AM  24011.61099253  .00001293  00000-0  99275-4 0  9992,2 53623  53.2153 171.8185 0001279  95.5261 264.5877 15.08843937 76772,6917.868,95.437,540.618,538.849,0.0
53623.0,STARLINK-4573,PAYLOAD,2024-01-11 19:25:58,15.08848836,0.0001299,53.2154,170.9262,90.8005,269.3136,0.00011131,1.484e-05,0.0,0 STARLINK-4573,1 53623U 22104AM  24011.80970902  .00001484  00000-0  11131-3 0  9998,2 53623  53.2154 170.9262 0001299  90.8005 269.3136 15.08848836 76128,6917.853,95.437,540.617,538.82,0.0
53623.0,STARLINK-4573,PAYLOAD,2024-01-12 09:44:27,15.08839572,0.0001958,53.218,168.2577,59.8985,300.2201,7.0889e-05,8.4e-06,0.0,0 STARLINK-4573,1 53623U 22104AM  24012.40587888  .00000840  00000-0  70889-4 0  9993,2 53623  53.2180 168.2577 0001958  59.8985 300.2201 15.08839572 76215,6917.882,95.438,541.101,538.392,0.0
53623.0,STARLINK-4573,PAYLOAD,2024-01-12 14:30:37,15.08836367,0.000158,53.2157,167.3593,75.8751,284.2416,4.317e-05,3.99e-06,0.0,0 STARLINK-4573,1 53623U 22104AM  24012.60460178  .00000399  00000-0  43170-4 0  9999,2 53623  53.2157 167.3593 0001580  75.8751 284.2416 15.08836367 76923,6917.891,95.438,540.85,538.663,0.0
53623.0,STARLINK-4573,PAYLOAD,2024-01-12 19:16:46,15.088423,0.0001265,53.2157,166.4667,91.3572,268.7565,9.1121e-05,1.163e-05,0.0,0 STARLINK-4573,1 53623U 22104AM  24012.80331635  .00001163  00000-0  91121-4 0  9995,2 53623  53.2157 166.4667 0001265  91.3572 268.7565 15.08842300 76958,6917.873,95.437,540.613,538.863,0.0
53623.0,STARLINK-4573,PAYLOAD,2024-01-13 14:21:24,15.08835857,0.0001273,53.2142,162.8978,107.2881,252.825,1.0882e-05,-1.15e-06,0.0,0 STARLINK-4573,1 53623U 22104AM  24013.59819954 -.00000115  00000-0  10882-4 0  9999,2 53623  53.2142 162.8978 0001273 107.2881 252.8250 15.08835857 77074,6917.893,95.438,540.639,538.877,0.0
53623.0,STARLINK-4573,PAYLOAD,2024-01-13 17:32:10,15.08843501,0.0001216,53.215,162.3031,91.9874,268.1257,7.3909e-05,8.89e-06,0.0,0 STARLINK-4573,1 53623U 22104AM  24013.73067787  .00000889  00000-0  73909-4 0  9990,2 53623  53.2150 162.3031 0001216  91.9874 268.1257 15.08843501 76415,6917.87,95.437,540.576,538.893,0.0
53623.0,STARLINK-4573,PAYLOAD,2024-01-14 09:26:02,15.08839571,0.0001323,53.2147,159.3304,74.0667,286.047,0.00015268,2.143e-05,0.0,0 STARLINK-4573,1 53623U 22104AM  24014.39308208  .00002143  00000-0  15268-3 0  9997,2 53623  53.2147 159.3304 0001323  74.0667 286.0470 15.08839571 76510,6917.882,95.438,540.662,538.831,0.0
53623.0,STARLINK-4573,PAYLOAD,2024-01-14 14:12:11,15.08845313,0.0001293,53.2147,158.4384,78.3557,281.758,0.00023493,3.454e-05,0.0,0 STARLINK-4573,1 53623U 22104AM  24014.59179950  .00003454  00000-0  23493-3 0  9994,2 53623  53.2147 158.4384 0001293  78.3557 281.7580 15.08845313 77223,6917.864,95.437,540.624,538.835,0.0
53623.0,STARLINK-4573,PAYLOAD,2024-01-14 15:47:34,15.08847448,0.0001335,53.2146,158.1412,75.9477,284.1663,0.00027414,4.079e-05,0.0,0 STARLINK-4573,1 53623U 22104AM  24014.65803883  .00004079  00000-0  27414-3 0  9991,2 53623  53.2146 158.1412 0001335  75.9477 284.1663 15.08847448 77233,6917.858,95.437,540.646,538.799,0.0
53623.0,STARLINK-4573,PAYLOAD,2024-01-15 12:27:35,15.08845715,0.0001394,53.2152,154.275,95.5807,264.5344,0.00015335,2.154e-05,0.0,0 STARLINK-4573,1 53623U 22104AM  24015.51915938  .00002154  00000-0  15335-3 0  9993,2 53623  53.2152 154.2750 0001394  95.5807 264.5344 15.08845715 76683,6917.863,95.437,540.692,538.764,0.0
53623.0,STARLINK-4573,PAYLOAD,2024-01-15 14:02:58,15.08846115,0.0001444,53.2156,153.9771,97.4396,262.676,0.00012901,1.766e-05,0.0,0 STARLINK-4573,1 53623U 22104AM  24015.58539840  .00001766  00000-0  12901-3 0  9998,2 53623  53.2156 153.9771 0001444  97.4396 262.6760 15.08846115 77379,6917.862,95.437,540.726,538.728,0.0
53623.0,STARLINK-4573,PAYLOAD,2024-01-15 15:38:21,15.08846017,0.0001398,53.2155,153.6795,91.3215,268.7937,0.00012902,1.766e-05,0.0,0 STARLINK-4573,1 53623U 22104AM  24015.65163841  .00001766  00000-0  12902-3 0  9991,2 53623  53.2155 153.6795 0001398  91.3215 268.7937 15.08846017 77387,6917.862,95.437,540.694,538.76,0.0
53623.0,STARLINK-4573,PAYLOAD,2024-01-16 12:18:22,15.08841695,0.0001334,53.2165,149.8148,99.5164,260.5979,-0.00013835,-2.489e-05,0.0,0 STARLINK-4573,1 53623U 22104AM  24016.51276113 -.00002489  00000-0 -13835-3 0  9995,2 53623  53.2165 149.8148 0001334  99.5164 260.5979 15.08841695 76832,6917.875,95.437,540.663,538.817,0.0
53623.0,STARLINK-4573,PAYLOAD,2024-01-16 13:53:45,15.08842107,0.0001366,53.2165,149.5176,98.7038,261.4109,-0.00014647,-2.618e-05,0.0,0 STARLINK-4573,1 53623U 22104AM  24016.57900088 -.00002618  00000-0 -14647-3 0  9992,2 53623  53.2165 149.5176 0001366  98.7038 261.4109 15.08842107 77527,6917.874,95.437,540.684,538.794,0.0
53623.0,STARLINK-4573,PAYLOAD,2024-01-16 18:39:54,15.0884434,0.0001387,53.2162,148.6228,99.9025,260.2124,-2.5628e-05,-6.96e-06,0.0,0 STARLINK-4573,1 53623U 22104AM  24016.77771989 -.00000696  00000-0 -25628-4 0  9996,2 53623  53.2162 148.6228 0001387  99.9025 260.2124 15.08844340 77552,6917.867,95.437,540.692,538.773,0.0
53623.0,STARLINK-4573,PAYLOAD,2024-01-17 12:09:10,15.08826571,0.0001568,53.2166,145.3511,113.5553,246.5604,0.00012007,1.623e-05,0.0,0 STARLINK-4573,1 53623U 22104AM  24017.50636889  .00001623  00000-0  12007-3 0  9992,2 53623  53.2166 145.3511 0001568 113.5553 246.5604 15.08826571 76987,6917.921,95.438,540.871,538.702,0.0
53623.0,STARLINK-4573,PAYLOAD,2024-01-17 13:44:33,15.08835994,0.0001499,53.2166,145.0543,103.9957,256.1201,2.0738e-05,4.2e-07,0.0,0 STARLINK-4573,1 53623U 22104AM  24017.57260733  .00000042  00000-0  20738-4 0  9995,2 53623  53.2166 145.0543 0001499 103.9957 256.1201 15.08835994 77679,6917.893,95.438,540.795,538.721,0.0
53623.0,STARLINK-4573,PAYLOAD,2024-01-17 15:19:56,15.0883886,0.0001494,53.2167,144.757,105.1602,254.9555,2.2178e-05,6.5e-07,0.0,0 STARLINK-4573,1 53623U 22104AM  24017.63884571  .00000065  00000-0  22178-4 0  9999,2 53623  53.2167 144.7570 0001494 105.1602 254.9555 15.08838860 77002,6917.884,95.438,540.782,538.715,0.0
53623.0,STARLINK-4573,PAYLOAD,2024-01-18 13:35:20,15.08841625,0.0001545,53.2171,140.5936,100.6473,259.4693,9.5447e-05,1.231e-05,0.0,0 STARLINK-4573,1 53623U 22104AM  24018.56620567  .00001231  00000-0  95447-4 0  9990,2 53623  53.2171 140.5936 0001545 100.6473 259.4693 15.08841625 77826,6917.875,95.437,540.809,538.672,0.0
53623.0,STARLINK-4573,PAYLOAD,2024-01-19 11:50:44,15.08840239,0.0001603,53.2178,136.4373,98.8722,261.2452,9.3e-05,1.192e-05,0.0,0 STARLINK-4573,1 53623U 22104AM  24019.49356889  .00001192  00000-0  93000-4 0  9995,2 53623  53.2178 136.4373 0001603  98.8722 261.2452 15.08840239 77286,6917.88,95.438,540.854,538.636,0.0
53623.0,STARLINK-4573,PAYLOAD,2024-01-19 13:26:07,15.08844926,0.0001512,53.2171,136.1393,96.6952,263.4213,6.2541e-05,7.08e-06,0.0,0 STARLINK-4573,1 53623U 22104AM  24019.55980675  .00000708  00000-0  62541-4 0  9996,2 53623  53.2171 136.1393 0001512  96.6952 263.4213 15.08844926 77970,6917.865,95.437,540.776,538.684,0.0
53623.0,STARLINK-4573,PAYLOAD,2024-01-19 15:01:30,15.08848281,0.000139,53.2169,135.8436,89.6514,270.4638,9.5812e-05,1.238e-05,0.0,0 STARLINK-4573,1 53623U 22104AM  24019.62604415  .00001238  00000-0  95812-4 0  9995,2 53623  53.2169 135.8436 0001390  89.6514 270.4638 15.08848281 77989,6917.855,95.437,540.682,538.758,0.0
53623.0,STARLINK-4573,PAYLOAD,2024-01-20 11:41:31,15.08838482,0.0001886,53.2179,131.9744,63.0998,297.0187,3.2493e-05,2.29e-06,0.0,0 STARLINK-4573,1 53623U 22104AM  24020.48717451  .00000229  00000-0  32493-4 0  9991,2 53623  53.2179 131.9744 0001886  63.0998 297.0187 15.08838482 77437,6917.885,95.438,541.055,538.445,0.0
53623.0,STARLINK-4573,PAYLOAD,2024-01-20 14:52:18,15.08835338,0.0001821,53.2182,131.3795,60.502,299.6154,9.9667e-05,1.298e-05,0.0,0 STARLINK-4573,1 53623U 22104AM  24020.61965473  .00001298  00000-0  99667-4 0  9998,2 53623  53.2182 131.3795 0001821  60.5020 299.6154 15.08835338 78135,6917.895,95.438,541.019,538.5,0.0
53623.0,STARLINK-4573,PAYLOAD,2024-01-21 13:07:39,15.08866486,0.0002058,53.2186,127.2167,56.8158,303.3032,0.00023576,3.469e-05,0.0,0 STARLINK-4573,1 53623U 22104AM  24021.54698889  .00003469  00000-0  23576-3 0  9992,2 53623  53.2186 127.2167 0002058  56.8158 303.3032 15.08866486 77594,6917.799,95.436,541.088,538.241,0.0
53623.0,STARLINK-4573,PAYLOAD,2024-01-21 16:18:25,15.08876505,0.0001527,53.2169,126.6208,69.4144,290.7012,0.00030663,4.6e-05,0.0,0 STARLINK-4573,1 53623U 22104AM  24021.67945681  .00004600  00000-0  30663-3 0  9994,2 53623  53.2169 126.6208 0001527  69.4144 290.7012 15.08876505 77612,6917.769,95.435,540.69,538.577,0.0
53623.0,STARLINK-4573,PAYLOAD,2024-01-22 11:23:05,15.08836822,0.0001456,53.2175,123.0494,77.2551,282.8604,-3.2171e-05,-8e-06,0.0,0 STARLINK-4573,1 53623U 22104AM  24022.47436875 -.00000800  00000-0 -32171-4 0  9990,2 53623  53.2175 123.0494 0001456  77.2551 282.8604 15.08836822 77737,6917.89,95.438,540.762,538.748,0.0
53623.0,STARLINK-4573,PAYLOAD,2024-01-22 12:58:28,15.08838891,0.0001724,53.2173,122.7528,66.2408,293.8764,6.0016e-06,-1.93e-06,0.0,0 STARLINK-4573,1 53623U 22104AM  24022.54060788 -.00000193  00000-0  60016-5 0  9998,2 53623  53.2173 122.7528 0001724  66.2408 293.8764 15.08838891 78420,6917.884,95.438,540.941,538.556,0.0
